{"type": "FeatureCollection", "features": [ {"type": "Feature", "properties": {"norad_id": 66848, "name": "STARLINK-36091", "group": "last-30-days", "lat": 5.281291313303538, "lon": 79.90321923957183, "alt_km": 346.78281602810057, "timestamp": "2025-12-20T14:38:00.690023+00:00", "meta": {"OBJECT_NAME": "STARLINK-36091", "OBJECT_ID": "2025-281A", "EPOCH": "2025-12-20T06:00:02.999808", "MEAN_MOTION": 15.75431122, "ECCENTRICITY": 9.435e-05, "INCLINATION": 43.0008, "RA_OF_ASC_NODE": 76.392, "ARG_OF_PERICENTER": 252.0889, "MEAN_ANOMALY": 234.1114, "EPHEMERIS_TYPE": 0, "CLASSIFICATION_TYPE": "U", "NORAD_CAT_ID": 66848, "ELEMENT_SET_NO": 999, "REV_AT_EPOCH": 260, "BSTAR": -0.012591915, "MEAN_MOTION_DOT": -0.01734151, "MEAN_MOTION_DDOT": 0}, "tle": {"line1": "1 66848U 25281A   25354.25003472 -.01734151  00000+0 -12592-1 0  9995", "line2": "2 66848  43.0008  76.3920 0000943 252.0889 234.1114 15.75431122  2601"}}, "geometry": {"type": "Point", "coordinates": [79.90321923957183, 5.281291313303538]}}, {"type": "Feature", "properties": {"norad_id": 66849, "name": "STARLINK-36102", "group": "last-30-days", "lat": 6.5804488058080715, "lon": 81.31687861835131, "alt_km": 346.4425740476536, "timestamp": "2025-12-20T14:38:00.690034+00:00", "meta": {"OBJECT_NAME": "STARLINK-36102", "OBJECT_ID": "2025-281B", "EPOCH": "2025-12-20T06:00:02.999808", "MEAN_MOTION": 15.75419546, "ECCENTRICITY": 9.98e-05, "INCLINATION": 43.0008, "RA_OF_ASC_NODE": 76.3875, "ARG_OF_PERICENTER": 263.7279, "MEAN_ANOMALY": 224.3953, "EPHEMERIS_TYPE": 0, "CLASSIFICATION_TYPE": "U", "NORAD_CAT_ID": 66849, "ELEMENT_SET_NO": 999, "REV_AT_EPOCH": 260, "BSTAR": -0.012488241, "MEAN_MOTION_DOT": -0.01720835, "MEAN_MOTION_DDOT": 0}, "tle": {"line1": "1 66849U 25281B   25354.25003472 -.01720835  00000+0 -12488-1 0  9994", "line2": "2 66849  43.0008  76.3875 0000998 263.7279 224.3953 15.75419546  2601"}}, "geometry": {"type": "Point", "coordinates": [81.31687861835131, 6.5804488058080715]}}, {"type": "Feature", "properties": {"norad_id": 66850, "name": "STARLINK-36105", "group": "last-30-days", "lat": 7.875928592667741, "lon": 82.73713112754723, "alt_km": 346.27325426973493, "timestamp": "2025-12-20T14:38:00.690044+00:00", "meta": {"OBJECT_NAME": "STARLINK-36105", "OBJECT_ID": "2025-281C", "EPOCH": "2025-12-20T06:00:02.999808", "MEAN_MOTION": 15.75428198, "ECCENTRICITY": 0.0001009, "INCLINATION": 43.0007, "RA_OF_ASC_NODE": 76.3818, "ARG_OF_PERICENTER": 269.344, "MEAN_ANOMALY": 220.6892, "EPHEMERIS_TYPE": 0, "CLASSIFICATION_TYPE": "U", "NORAD_CAT_ID": 66850, "ELEMENT_SET_NO": 999, "REV_AT_EPOCH": 260, "BSTAR": -0.012537321, "MEAN_MOTION_DOT": -0.01727382, "MEAN_MOTION_DDOT": 0}, "tle": {"line1": "1 66850U 25281C   25354.25003472 -.01727382  00000+0 -12537-1 0  9995", "line2": "2 66850  43.0007  76.3818 0001009 269.3440 220.6892 15.75428198  2609"}}, "geometry": {"type": "Point", "coordinates": [82.73713112754723, 7.875928592667741]}}, {"type": "Feature", "properties": {"norad_id": 66851, "name": "STARLINK-36094", "group": "last-30-days", "lat": 9.161003710483138, "lon": 84.16083042194718, "alt_km": 346.13686057492214, "timestamp": "2025-12-20T14:38:00.690056+00:00", "meta": {"OBJECT_NAME": "STARLINK-36094", "OBJECT_ID": "2025-281D", "EPOCH": "2025-12-20T06:00:02.999808", "MEAN_MOTION": 15.75476274, "ECCENTRICITY": 9.366e-05, "INCLINATION": 43.0009, "RA_OF_ASC_NODE": 76.377, "ARG_OF_PERICENTER": 259.4513, "MEAN_ANOMALY": 232.4489, "EPHEMERIS_TYPE": 0, "CLASSIFICATION_TYPE": "U", "NORAD_CAT_ID": 66851, "ELEMENT_SET_NO": 999, "REV_AT_EPOCH": 260, "BSTAR": -0.012785095, "MEAN_MOTION_DOT": -0.017606, "MEAN_MOTION_DDOT": 0}, "tle": {"line1": "1 66851U 25281D   25354.25003472 -.01760600  00000+0 -12785-1 0  9991", "line2": "2 66851  43.0009  76.3770 0000936 259.4513 232.4489 15.75476274  2609"}}, "geometry": {"type": "Point", "coordinates": [84.16083042194718, 9.161003710483138]}}, {"type": "Feature", "properties": {"norad_id": 66852, "name": "STARLINK-35992", "group": "last-30-days", "lat": 10.45384866129973, "lon": 85.61122367876558, "alt_km": 345.8756498839102, "timestamp": "2025-12-20T14:38:00.690066+00:00", "meta": {"OBJECT_NAME": "STARLINK-35992", "OBJECT_ID": "2025-281E", "EPOCH": "2025-12-20T06:00:02.999808", "MEAN_MOTION": 15.7542286, "ECCENTRICITY": 0.00011273, "INCLINATION": 43.0004, "RA_OF_ASC_NODE": 76.3729, "ARG_OF_PERICENTER": 274.7983, "MEAN_ANOMALY": 219.078, "EPHEMERIS_TYPE": 0, "CLASSIFICATION_TYPE": "U", "NORAD_CAT_ID": 66852, "ELEMENT_SET_NO": 999, "REV_AT_EPOCH": 260, "BSTAR": -0.012534498, "MEAN_MOTION_DOT": -0.01726765, "MEAN_MOTION_DDOT": 0}, "tle": {"line1": "1 66852U 25281E   25354.25003472 -.01726765  00000+0 -12534-1 0  9998", "line2": "2 66852  43.0004  76.3729 0001127 274.7983 219.0780 15.75422860  2600"}}, "geometry": {"type": "Point", "coordinates": [85.61122367876558, 10.45384866129973]}}, {"type": "Feature", "properties": {"norad_id": 66853, "name": "STARLINK-35986", "group": "last-30-days", "lat": 11.732117047103149, "lon": 87.06349401726757, "alt_km": 345.7659421307653, "timestamp": "2025-12-20T14:38:00.690078+00:00", "meta": {"OBJECT_NAME": "STARLINK-35986", "OBJECT_ID": "2025-281F", "EPOCH": "2025-12-20T06:00:02.999808", "MEAN_MOTION": 15.75430405, "ECCENTRICITY": 0.00012073, "INCLINATION": 43.0005, "RA_OF_ASC_NODE": 76.368, "ARG_OF_PERICENTER": 272.2015, "MEAN_ANOMALY": 223.5846, "EPHEMERIS_TYPE": 0, "CLASSIFICATION_TYPE": "U", "NORAD_CAT_ID": 66853, "ELEMENT_SET_NO": 999, "REV_AT_EPOCH": 260, "BSTAR": -0.012576802, "MEAN_MOTION_DOT": -0.01732463, "MEAN_MOTION_DDOT": 0}, "tle": {"line1": "1 66853U 25281F   25354.25003472 -.01732463  00000+0 -12577-1 0  9998", "line2": "2 66853  43.0005  76.3680 0001207 272.2015 223.5846 15.75430405  2603"}}, "geometry": {"type": "Point", "coordinates": [87.06349401726757, 11.732117047103149]}}, {"type": "Feature", "properties": {"norad_id": 66854, "name": "STARLINK-36087", "group": "last-30-days", "lat": 13.00196350521473, "lon": 88.52756820063374, "alt_km": 345.7027104673016, "timestamp": "2025-12-20T14:38:00.690088+00:00", "meta": {"OBJECT_NAME": "STARLINK-36087", "OBJECT_ID": "2025-281G", "EPOCH": "2025-12-20T06:00:02.999808", "MEAN_MOTION": 15.75426144, "ECCENTRICITY": 0.000122, "INCLINATION": 43.0008, "RA_OF_ASC_NODE": 76.3626, "ARG_OF_PERICENTER": 266.9587, "MEAN_ANOMALY": 230.7454, "EPHEMERIS_TYPE": 0, "CLASSIFICATION_TYPE": "U", "NORAD_CAT_ID": 66854, "ELEMENT_SET_NO": 999, "REV_AT_EPOCH": 260, "BSTAR": -0.012530486, "MEAN_MOTION_DOT": -0.01726567, "MEAN_MOTION_DDOT": 0}, "tle": {"line1": "1 66854U 25281G   25354.25003472 -.01726567  00000+0 -12530-1 0  9996", "line2": "2 66854  43.0008  76.3626 0001220 266.9587 230.7454 15.75426144  2606"}}, "geometry": {"type": "Point", "coordinates": [88.52756820063374, 13.00196350521473]}}, {"type": "Feature", "properties": {"norad_id": 66855, "name": "STARLINK-36090", "group": "last-30-days", "lat": 14.263541080700541, "lon": 90.00758180363724, "alt_km": 345.4802230204132, "timestamp": "2025-12-20T14:38:00.690098+00:00", "meta": {"OBJECT_NAME": "STARLINK-36090", "OBJECT_ID": "2025-281H", "EPOCH": "2025-12-20T06:00:02.999808", "MEAN_MOTION": 15.75421006, "ECCENTRICITY": 9.572e-05, "INCLINATION": 43.0009, "RA_OF_ASC_NODE": 76.3579, "ARG_OF_PERICENTER": 263.97, "MEAN_ANOMALY": 235.6559, "EPHEMERIS_TYPE": 0, "CLASSIFICATION_TYPE": "U", "NORAD_CAT_ID": 66855, "ELEMENT_SET_NO": 999, "REV_AT_EPOCH": 248, "BSTAR": -0.012483616, "MEAN_MOTION_DOT": -0.01720343, "MEAN_MOTION_DDOT": 0}, "tle": {"line1": "1 66855U 25281H   25354.25003472 -.01720343  00000+0 -12484-1 0  9991", "line2": "2 66855  43.0009  76.3579 0000957 263.9700 235.6559 15.75421006  2483"}}, "geometry": {"type": "Point", "coordinates": [90.00758180363724, 14.263541080700541]}}, {"type": "Feature", "properties": {"norad_id": 66856, "name": "STARLINK-36072", "group": "last-30-days", "lat": 15.515539235032946, "lon": 91.50320526543494, "alt_km": 345.3752450811362, "timestamp": "2025-12-20T14:38:00.690110+00:00", "meta": {"OBJECT_NAME": "STARLINK-36072", "OBJECT_ID": "2025-281J", "EPOCH": "2025-12-20T06:00:02.999808", "MEAN_MOTION": 15.75417788, "ECCENTRICITY": 9.328e-05, "INCLINATION": 43.0008, "RA_OF_ASC_NODE": 76.3524, "ARG_OF_PERICENTER": 259.8753, "MEAN_ANOMALY": 241.6694, "EPHEMERIS_TYPE": 0, "CLASSIFICATION_TYPE": "U", "NORAD_CAT_ID": 66856, "ELEMENT_SET_NO": 999, "REV_AT_EPOCH": 260, "BSTAR": -0.012465196, "MEAN_MOTION_DOT": -0.01717873, "MEAN_MOTION_DDOT": 0}, "tle": {"line1": "1 66856U 25281J   25354.25003472 -.01717873  00000+0 -12465-1 0  9995", "line2": "2 66856  43.0008  76.3524 0000932 259.8753 241.6694 15.75417788  2601"}}, "geometry": {"type": "Point", "coordinates": [91.50320526543494, 15.515539235032946]}}, {"type": "Feature", "properties": {"norad_id": 66857, "name": "STARLINK-36083", "group": "last-30-days", "lat": 16.758902041864935, "lon": 93.01967589728244, "alt_km": 345.14816305948716, "timestamp": "2025-12-20T14:38:00.690121+00:00", "meta": {"OBJECT_NAME": "STARLINK-36083", "OBJECT_ID": "2025-281K", "EPOCH": "2025-12-20T06:00:02.999808", "MEAN_MOTION": 15.75426243, "ECCENTRICITY": 9.336e-05, "INCLINATION": 43.0007, "RA_OF_ASC_NODE": 76.3475, "ARG_OF_PERICENTER": 263.9244, "MEAN_ANOMALY": 239.5314, "EPHEMERIS_TYPE": 0, "CLASSIFICATION_TYPE": "U", "NORAD_CAT_ID": 66857, "ELEMENT_SET_NO": 999, "REV_AT_EPOCH": 260, "BSTAR": -0.012531948, "MEAN_MOTION_DOT": -0.01726545, "MEAN_MOTION_DDOT": 0}, "tle": {"line1": "1 66857U 25281K   25354.25003472 -.01726545  00000+0 -12532-1 0  9997", "line2": "2 66857  43.0007  76.3475 0000933 263.9244 239.5314 15.75426243  2609"}}, "geometry": {"type": "Point", "coordinates": [93.01967589728244, 16.758902041864935]}}]}